[{"OBJECT_NAME":"OBJECT L","OBJECT_ID":"2023-085L","EPOCH":"2026-03-09T23:02:21.999840","MEAN_MOTION":15.29079976,"ECCENTRICITY":0.0005428,"INCLINATION":97.486,"RA_OF_ASC_NODE":178.8598,"ARG_OF_PERICENTER":50.8528,"MEAN_ANOMALY":309.3193,"EPHEMERIS_TYPE":0,"CLASSIFICATION_TYPE":"U","NORAD_CAT_ID":57014,"ELEMENT_SET_NO":999,"REV_AT_EPOCH":15144,"BSTAR":0.00063462603,"MEAN_MOTION_DOT":0.00017871,"MEAN_MOTION_DDOT":0},{"OBJECT_NAME":"STARLINK-31986","OBJECT_ID":"2024-111D","EPOCH":"2026-03-09T07:19:25.571712","MEAN_MOTION":15.30197134,"ECCENTRICITY":0.00012613,"INCLINATION":53.1603,"RA_OF_ASC_NODE":77.4785,"ARG_OF_PERICENTER":77.5395,"MEAN_ANOMALY":282.5747,"EPHEMERIS_TYPE":0,"CLASSIFICATION_TYPE":"U","NORAD_CAT_ID":60019,"ELEMENT_SET_NO":999,"REV_AT_EPOCH":9898,"BSTAR":3.6426625e-5,"MEAN_MOTION_DOT":7.2e-6,"MEAN_MOTION_DDOT":0}]
